[{"OBJECT_NAME":"ONEWEB-0520","OBJECT_ID":"2022-138AB","EPOCH":"2026-03-09T17:36:59.960448","MEAN_MOTION":13.19725271,"ECCENTRICITY":0.00017051,"INCLINATION":87.9235,"RA_OF_ASC_NODE":324.7788,"ARG_OF_PERICENTER":89.3661,"MEAN_ANOMALY":270.7667,"EPHEMERIS_TYPE":0,"CLASSIFICATION_TYPE":"U","NORAD_CAT_ID":54138,"ELEMENT_SET_NO":999,"REV_AT_EPOCH":16370,"BSTAR":-0.00024641863,"MEAN_MOTION_DOT":-8.6e-7,"MEAN_MOTION_DDOT":0},{"OBJECT_NAME":"DELTA 1 DEB","OBJECT_ID":"1975-052HM","EPOCH":"2026-03-09T23:16:56.527680","MEAN_MOTION":13.62520452,"ECCENTRICITY":0.02445771,"INCLINATION":99.8448,"RA_OF_ASC_NODE":235.7045,"ARG_OF_PERICENTER":123.3093,"MEAN_ANOMALY":27.386,"EPHEMERIS_TYPE":0,"CLASSIFICATION_TYPE":"U","NORAD_CAT_ID":21567,"ELEMENT_SET_NO":999,"REV_AT_EPOCH":72260,"BSTAR":0.001115498,"MEAN_MOTION_DOT":1.015e-5,"MEAN_MOTION_DDOT":0}]
